{
    "crs": {
        "type": "name",
        "properties": {
            "name": "urn:ogc:def:crs:OGC:1.3:CRS84"
        }
    },
    "name": "yangon-city-district-2043",
    "type": "FeatureCollection",
    "features": [
        {
            "type": "Feature",
            "geometry": {
                "type": "MultiPolygon",
                "coordinates": [
                    [
                        [
                            [
                                95.9947586,
                                16.874968
                            ],
                            [
                                95.9952897,
                                16.8686629
                            ],
                            [
                                95.9978075,
                                16.8683161
                            ],
                            [
                                95.9999519,
                                16.8671875
                            ],
                            [
                                96.0073677,
                                16.8599715
                            ],
                            [
                                96.0071424,
                                16.8582542
                            ],
                            [
                                96.0046935,
                                16.8546374
                            ],
                            [
                                96.0048196,
                                16.853626
                            ],
                            [
                                96.0067524,
                                16.8524408
                            ],
                            [
                                96.0111791,
                                16.8523348
                            ],
                            [
                                96.0129976,
                                16.8516776
                            ],
                            [
                                96.0163262,
                                16.8470107
                            ],
                            [
                                96.0180818,
                                16.8459971
                            ],
                            [
                                96.0226536,
                                16.8444385
                            ],
                            [
                                96.0246063,
                                16.8445617
                            ],
                            [
                                96.0260975,
                                16.8452137
                            ],
                            [
                                96.029107,
                                16.8510718
                            ],
                            [
                                96.0296434,
                                16.857959
                            ],
                            [
                                96.0317945,
                                16.860087
                            ],
                            [
                                96.03407,
                                16.8604537
                            ],
                            [
                                96.0420675,
                                16.8593819
                            ],
                            [
                                96.0467849,
                                16.8574291
                            ],
                            [
                                96.05218,
                                16.8529063
                            ],
                            [
                                96.0604681,
                                16.8482607
                            ],
                            [
                                96.0657223,
                                16.8402317
                            ],
                            [
                                96.0680258,
                                16.837656
                            ],
                            [
                                96.0715288,
                                16.8352171
                            ],
                            [
                                96.083309,
                                16.8315202
                            ],
                            [
                                96.0869944,
                                16.8307551
                            ],
                            [
                                96.0920638,
                                16.8305703
                            ],
                            [
                                96.0983968,
                                16.8290498
                            ],
                            [
                                96.1061873,
                                16.8257219
                            ],
                            [
                                96.1094498,
                                16.8249581
                            ],
                            [
                                96.108366,
                                16.8190971
                            ],
                            [
                                96.1099526,
                                16.8018356
                            ],
                            [
                                96.1065522,
                                16.7830695
                            ],
                            [
                                96.103723,
                                16.7846079
                            ],
                            [
                                96.100962,
                                16.7849062
                            ],
                            [
                                96.0998209,
                                16.7845241
                            ],
                            [
                                96.0993978,
                                16.7825068
                            ],
                            [
                                96.0964022,
                                16.7823505
                            ],
                            [
                                96.0960064,
                                16.7670078
                            ],
                            [
                                96.0917678,
                                16.7631159
                            ],
                            [
                                96.0898838,
                                16.7622468
                            ],
                            [
                                96.087225,
                                16.7622927
                            ],
                            [
                                96.0852337,
                                16.7615911
                            ],
                            [
                                96.0847333,
                                16.764131
                            ],
                            [
                                96.0815906,
                                16.7629912
                            ],
                            [
                                96.0814223,
                                16.7622277
                            ],
                            [
                                96.0794139,
                                16.7480755
                            ],
                            [
                                96.0934205,
                                16.7488054
                            ],
                            [
                                96.0957986,
                                16.7461461
                            ],
                            [
                                96.0961636,
                                16.7447101
                            ],
                            [
                                96.096047,
                                16.7422465
                            ],
                            [
                                96.0947596,
                                16.7409376
                            ],
                            [
                                96.0943514,
                                16.737209
                            ],
                            [
                                96.0933149,
                                16.7357835
                            ],
                            [
                                96.0914912,
                                16.7349175
                            ],
                            [
                                96.0917457,
                                16.7326092
                            ],
                            [
                                96.0911704,
                                16.7315505
                            ],
                            [
                                96.0893085,
                                16.7311342
                            ],
                            [
                                96.0884492,
                                16.7303417
                            ],
                            [
                                96.0876755,
                                16.7260976
                            ],
                            [
                                96.0837379,
                                16.724992
                            ],
                            [
                                96.083407,
                                16.7222852
                            ],
                            [
                                96.0851023,
                                16.7214382
                            ],
                            [
                                96.0903946,
                                16.7215418
                            ],
                            [
                                96.0909314,
                                16.7210689
                            ],
                            [
                                96.0923541,
                                16.7157745
                            ],
                            [
                                96.0921928,
                                16.7082364
                            ],
                            [
                                96.0876421,
                                16.7065519
                            ],
                            [
                                96.0865988,
                                16.7055766
                            ],
                            [
                                96.085355,
                                16.7054693
                            ],
                            [
                                96.0822514,
                                16.7028441
                            ],
                            [
                                96.0781305,
                                16.7015557
                            ],
                            [
                                96.0722758,
                                16.7035456
                            ],
                            [
                                96.0682179,
                                16.7022278
                            ],
                            [
                                96.0652425,
                                16.6993941
                            ],
                            [
                                96.0627697,
                                16.6982486
                            ],
                            [
                                96.0613106,
                                16.6979879
                            ],
                            [
                                96.0600509,
                                16.6988709
                            ],
                            [
                                96.0585011,
                                16.6988757
                            ],
                            [
                                96.0597745,
                                16.6847454
                            ],
                            [
                                96.060736,
                                16.6831784
                            ],
                            [
                                96.0666155,
                                16.6840639
                            ],
                            [
                                96.0680134,
                                16.6807475
                            ],
                            [
                                96.0710399,
                                16.6757244
                            ],
                            [
                                96.0716156,
                                16.6663488
                            ],
                            [
                                96.070574,
                                16.6641406
                            ],
                            [
                                96.069376,
                                16.6632632
                            ],
                            [
                                96.0693875,
                                16.6612333
                            ],
                            [
                                96.0683184,
                                16.6598301
                            ],
                            [
                                96.0669876,
                                16.6607639
                            ],
                            [
                                96.0656147,
                                16.6608891
                            ],
                            [
                                96.0655423,
                                16.659151
                            ],
                            [
                                96.0644165,
                                16.658437
                            ],
                            [
                                96.0649014,
                                16.6572286
                            ],
                            [
                                96.0640616,
                                16.6566335
                            ],
                            [
                                96.0768582,
                                16.6451587
                            ],
                            [
                                96.085778,
                                16.6434434
                            ],
                            [
                                96.0902379,
                                16.6482463
                            ],
                            [
                                96.0940116,
                                16.6499617
                            ],
                            [
                                96.0970992,
                                16.6547646
                            ],
                            [
                                96.1015591,
                                16.6561369
                            ],
                            [
                                96.1080774,
                                16.6571661
                            ],
                            [
                                96.111165,
                                16.6537354
                            ],
                            [
                                96.1095937,
                                16.6494079
                            ],
                            [
                                96.1102117,
                                16.6462157
                            ],
                            [
                                96.1101982,
                                16.6428152
                            ],
                            [
                                96.1049898,
                                16.6420711
                            ],
                            [
                                96.1026021,
                                16.637644
                            ],
                            [
                                96.1027307,
                                16.6350035
                            ],
                            [
                                96.1014804,
                                16.6332487
                            ],
                            [
                                96.1027689,
                                16.6320088
                            ],
                            [
                                96.1028425,
                                16.6297312
                            ],
                            [
                                96.1018278,
                                16.6274964
                            ],
                            [
                                96.1007943,
                                16.6264014
                            ],
                            [
                                96.1039606,
                                16.6245747
                            ],
                            [
                                96.103925,
                                16.6200734
                            ],
                            [
                                96.1078693,
                                16.6146453
                            ],
                            [
                                96.1103109,
                                16.6143127
                            ],
                            [
                                96.11131,
                                16.6131568
                            ],
                            [
                                96.1159679,
                                16.6105089
                            ],
                            [
                                96.1166541,
                                16.6081074
                            ],
                            [
                                96.1248877,
                                16.6081074
                            ],
                            [
                                96.12626,
                                16.6050198
                            ],
                            [
                                96.1307199,
                                16.6081074
                            ],
                            [
                                96.1351797,
                                16.6067352
                            ],
                            [
                                96.1413549,
                                16.610852
                            ],
                            [
                                96.1447856,
                                16.6118812
                            ],
                            [
                                96.1469992,
                                16.6107161
                            ],
                            [
                                96.1477526,
                                16.6123937
                            ],
                            [
                                96.1484091,
                                16.6177766
                            ],
                            [
                                96.1547346,
                                16.6166841
                            ],
                            [
                                96.1612529,
                                16.6177133
                            ],
                            [
                                96.1682754,
                                16.614667
                            ],
                            [
                                96.167448,
                                16.612814
                            ],
                            [
                                96.1683026,
                                16.6112341
                            ],
                            [
                                96.1706404,
                                16.6095374
                            ],
                            [
                                96.1716668,
                                16.5977189
                            ],
                            [
                                96.1725436,
                                16.5955374
                            ],
                            [
                                96.175585,
                                16.5941146
                            ],
                            [
                                96.1842384,
                                16.595757
                            ],
                            [
                                96.186983,
                                16.5940417
                            ],
                            [
                                96.1928151,
                                16.5923263
                            ],
                            [
                                96.196249,
                                16.5919743
                            ],
                            [
                                96.1983042,
                                16.6043337
                            ],
                            [
                                96.2044794,
                                16.6077644
                            ],
                            [
                                96.213122,
                                16.6042282
                            ],
                            [
                                96.2333193,
                                16.6086907
                            ],
                            [
                                96.2360708,
                                16.6180568
                            ],
                            [
                                96.240808,
                                16.6276628
                            ],
                            [
                                96.2440567,
                                16.6326436
                            ],
                            [
                                96.2448196,
                                16.6431112
                            ],
                            [
                                96.2430451,
                                16.6520068
                            ],
                            [
                                96.2398869,
                                16.6555597
                            ],
                            [
                                96.2272543,
                                16.6599021
                            ],
                            [
                                96.2202987,
                                16.6654957
                            ],
                            [
                                96.212963,
                                16.6728396
                            ],
                            [
                                96.2090618,
                                16.677627
                            ],
                            [
                                96.2063719,
                                16.6847046
                            ],
                            [
                                96.2032826,
                                16.7013877
                            ],
                            [
                                96.2031921,
                                16.7049585
                            ],
                            [
                                96.2000538,
                                16.7104184
                            ],
                            [
                                96.1966248,
                                16.7218197
                            ],
                            [
                                96.1908932,
                                16.7363613
                            ],
                            [
                                96.1901246,
                                16.7414501
                            ],
                            [
                                96.1914368,
                                16.7467755
                            ],
                            [
                                96.1913453,
                                16.7576725
                            ],
                            [
                                96.2020392,
                                16.7665305
                            ],
                            [
                                96.2084379,
                                16.7703827
                            ],
                            [
                                96.20967,
                                16.7745239
                            ],
                            [
                                96.2109296,
                                16.7766281
                            ],
                            [
                                96.2202889,
                                16.78351
                            ],
                            [
                                96.2422608,
                                16.7956269
                            ],
                            [
                                96.2606709,
                                16.8010057
                            ],
                            [
                                96.2658568,
                                16.8040075
                            ],
                            [
                                96.2699298,
                                16.8069954
                            ],
                            [
                                96.2744799,
                                16.8112232
                            ],
                            [
                                96.2785713,
                                16.8194351
                            ],
                            [
                                96.2814672,
                                16.8229672
                            ],
                            [
                                96.2836991,
                                16.8244941
                            ],
                            [
                                96.2978096,
                                16.8264593
                            ],
                            [
                                96.3033119,
                                16.8291078
                            ],
                            [
                                96.3061223,
                                16.8322141
                            ],
                            [
                                96.3072814,
                                16.8366444
                            ],
                            [
                                96.3076462,
                                16.8470801
                            ],
                            [
                                96.3088366,
                                16.8608578
                            ],
                            [
                                96.3104069,
                                16.8744993
                            ],
                            [
                                96.3111275,
                                16.8770885
                            ],
                            [
                                96.3351611,
                                16.8935769
                            ],
                            [
                                96.3425168,
                                16.9073778
                            ],
                            [
                                96.3454352,
                                16.9108429
                            ],
                            [
                                96.3485507,
                                16.9160783
                            ],
                            [
                                96.3532694,
                                16.9214859
                            ],
                            [
                                96.3587982,
                                16.9257085
                            ],
                            [
                                96.3640878,
                                16.9286092
                            ],
                            [
                                96.3664589,
                                16.9306848
                            ],
                            [
                                96.3684114,
                                16.9336481
                            ],
                            [
                                96.3688068,
                                16.9369348
                            ],
                            [
                                96.3675564,
                                16.9420366
                            ],
                            [
                                96.3631898,
                                16.9508478
                            ],
                            [
                                96.360139,
                                16.9501102
                            ],
                            [
                                96.3592499,
                                16.9489627
                            ],
                            [
                                96.3583941,
                                16.9504405
                            ],
                            [
                                96.356478,
                                16.9493394
                            ],
                            [
                                96.3561296,
                                16.9504333
                            ],
                            [
                                96.3554329,
                                16.9506651
                            ],
                            [
                                96.3550466,
                                16.9493321
                            ],
                            [
                                96.3546074,
                                16.9492814
                            ],
                            [
                                96.3530624,
                                16.9504333
                            ],
                            [
                                96.3533956,
                                16.9494843
                            ],
                            [
                                96.3528049,
                                16.9484556
                            ],
                            [
                                96.3522899,
                                16.9494408
                            ],
                            [
                                96.3512618,
                                16.949409
                            ],
                            [
                                96.3511601,
                                16.9504694
                            ],
                            [
                                96.349334,
                                16.9512582
                            ],
                            [
                                96.349093,
                                16.9518115
                            ],
                            [
                                96.3399203,
                                16.9498862
                            ],
                            [
                                96.3359348,
                                16.9538237
                            ],
                            [
                                96.3321174,
                                16.9608953
                            ],
                            [
                                96.3335838,
                                16.9624837
                            ],
                            [
                                96.3339434,
                                16.96418
                            ],
                            [
                                96.3355658,
                                16.9645723
                            ],
                            [
                                96.3376422,
                                16.9659035
                            ],
                            [
                                96.3413911,
                                16.9662953
                            ],
                            [
                                96.3444801,
                                16.972704
                            ],
                            [
                                96.3489664,
                                16.9748012
                            ],
                            [
                                96.350555,
                                16.9763828
                            ],
                            [
                                96.3517327,
                                16.9791418
                            ],
                            [
                                96.3504517,
                                16.9821418
                            ],
                            [
                                96.3485496,
                                16.9833904
                            ],
                            [
                                96.345063,
                                16.9905865
                            ],
                            [
                                96.343948,
                                16.9912035
                            ],
                            [
                                96.3410689,
                                16.9914924
                            ],
                            [
                                96.3411653,
                                16.9937891
                            ],
                            [
                                96.3389793,
                                16.9940619
                            ],
                            [
                                96.3394063,
                                16.9954341
                            ],
                            [
                                96.3387556,
                                16.9963135
                            ],
                            [
                                96.3353749,
                                16.9967292
                            ],
                            [
                                96.332749,
                                16.9964072
                            ],
                            [
                                96.3310842,
                                16.9956919
                            ],
                            [
                                96.3301638,
                                16.9966311
                            ],
                            [
                                96.3284105,
                                16.9965861
                            ],
                            [
                                96.323858,
                                17.000102
                            ],
                            [
                                96.3232746,
                                17.0010393
                            ],
                            [
                                96.3225304,
                                17.0051631
                            ],
                            [
                                96.3219621,
                                17.0114574
                            ],
                            [
                                96.3189667,
                                17.0234142
                            ],
                            [
                                96.3120533,
                                17.0215864
                            ],
                            [
                                96.3078068,
                                17.0211731
                            ],
                            [
                                96.2995503,
                                17.0161586
                            ],
                            [
                                96.2967785,
                                17.0179395
                            ],
                            [
                                96.2942234,
                                17.0184091
                            ],
                            [
                                96.2914802,
                                17.0167502
                            ],
                            [
                                96.2867762,
                                17.0125433
                            ],
                            [
                                96.2855363,
                                17.0108369
                            ],
                            [
                                96.2841602,
                                17.011061
                            ],
                            [
                                96.2831425,
                                17.0106796
                            ],
                            [
                                96.2815334,
                                17.008628
                            ],
                            [
                                96.2800481,
                                17.0078915
                            ],
                            [
                                96.2785903,
                                17.0056558
                            ],
                            [
                                96.2745014,
                                17.0053237
                            ],
                            [
                                96.274075,
                                17.0054946
                            ],
                            [
                                96.2738,
                                17.0074361
                            ],
                            [
                                96.273243,
                                17.0081725
                            ],
                            [
                                96.2704845,
                                17.0077171
                            ],
                            [
                                96.2690453,
                                17.0070104
                            ],
                            [
                                96.2663903,
                                17.004149
                            ],
                            [
                                96.2592257,
                                17.0011133
                            ],
                            [
                                96.2600023,
                                16.9997722
                            ],
                            [
                                96.25958,
                                16.9990234
                            ],
                            [
                                96.2582427,
                                16.9988033
                            ],
                            [
                                96.2556796,
                                16.9996785
                            ],
                            [
                                96.2544468,
                                16.9983211
                            ],
                            [
                                96.2518783,
                                16.9976993
                            ],
                            [
                                96.2509514,
                                16.9970206
                            ],
                            [
                                96.2449636,
                                16.9911137
                            ],
                            [
                                96.2441509,
                                16.9896123
                            ],
                            [
                                96.2442914,
                                16.9884193
                            ],
                            [
                                96.2454003,
                                16.9875748
                            ],
                            [
                                96.2483931,
                                16.9869191
                            ],
                            [
                                96.2531551,
                                16.9878082
                            ],
                            [
                                96.2536765,
                                16.9875563
                            ],
                            [
                                96.2586464,
                                16.980182
                            ],
                            [
                                96.2563308,
                                16.9775837
                            ],
                            [
                                96.2558362,
                                16.9751964
                            ],
                            [
                                96.2612924,
                                16.9716251
                            ],
                            [
                                96.2622144,
                                16.970504
                            ],
                            [
                                96.2622963,
                                16.968947
                            ],
                            [
                                96.2593156,
                                16.9674152
                            ],
                            [
                                96.2539784,
                                16.9669841
                            ],
                            [
                                96.2510067,
                                16.9654818
                            ],
                            [
                                96.2467648,
                                16.9684356
                            ],
                            [
                                96.2448215,
                                16.9681886
                            ],
                            [
                                96.2429911,
                                16.9666274
                            ],
                            [
                                96.239786,
                                16.9621841
                            ],
                            [
                                96.2393273,
                                16.9600775
                            ],
                            [
                                96.2396383,
                                16.955669
                            ],
                            [
                                96.2390407,
                                16.9536344
                            ],
                            [
                                96.2380703,
                                16.9526672
                            ],
                            [
                                96.2364572,
                                16.953208
                            ],
                            [
                                96.2347084,
                                16.9565012
                            ],
                            [
                                96.2323594,
                                16.9595871
                            ],
                            [
                                96.230485,
                                16.9605482
                            ],
                            [
                                96.22888,
                                16.9603876
                            ],
                            [
                                96.2282159,
                                16.9591412
                            ],
                            [
                                96.2286863,
                                16.9571996
                            ],
                            [
                                96.2283698,
                                16.9555422
                            ],
                            [
                                96.2263831,
                                16.9524613
                            ],
                            [
                                96.2231109,
                                16.9485117
                            ],
                            [
                                96.2196133,
                                16.9480088
                            ],
                            [
                                96.2185619,
                                16.9472596
                            ],
                            [
                                96.2185458,
                                16.9461604
                            ],
                            [
                                96.2200205,
                                16.9435269
                            ],
                            [
                                96.2190018,
                                16.9419541
                            ],
                            [
                                96.2166218,
                                16.9420803
                            ],
                            [
                                96.215354,
                                16.9430112
                            ],
                            [
                                96.2137475,
                                16.9448597
                            ],
                            [
                                96.2138734,
                                16.9459362
                            ],
                            [
                                96.2069523,
                                16.9493172
                            ],
                            [
                                96.2063979,
                                16.9499163
                            ],
                            [
                                96.2062735,
                                16.9516474
                            ],
                            [
                                96.2054552,
                                16.9520544
                            ],
                            [
                                96.2035917,
                                16.9507565
                            ],
                            [
                                96.2018195,
                                16.9513003
                            ],
                            [
                                96.2001142,
                                16.9525477
                            ],
                            [
                                96.1910137,
                                16.9543452
                            ],
                            [
                                96.1896991,
                                16.9551384
                            ],
                            [
                                96.1882021,
                                16.9573491
                            ],
                            [
                                96.1822847,
                                16.9590342
                            ],
                            [
                                96.1797365,
                                16.9619726
                            ],
                            [
                                96.1769925,
                                16.9619388
                            ],
                            [
                                96.17671,
                                16.9635408
                            ],
                            [
                                96.1787778,
                                16.9648534
                            ],
                            [
                                96.1811353,
                                16.9682482
                            ],
                            [
                                96.1812268,
                                16.9696829
                            ],
                            [
                                96.180422,
                                16.972562
                            ],
                            [
                                96.1806501,
                                16.9735313
                            ],
                            [
                                96.1815315,
                                16.9742787
                            ],
                            [
                                96.1834432,
                                16.9745952
                            ],
                            [
                                96.1845382,
                                16.9757741
                            ],
                            [
                                96.18403,
                                16.9763091
                            ],
                            [
                                96.1822796,
                                16.9757627
                            ],
                            [
                                96.1801996,
                                16.9763547
                            ],
                            [
                                96.1797316,
                                16.9768995
                            ],
                            [
                                96.1797691,
                                16.9783038
                            ],
                            [
                                96.1820078,
                                16.9787036
                            ],
                            [
                                96.1835304,
                                16.9797039
                            ],
                            [
                                96.1837446,
                                16.9804088
                            ],
                            [
                                96.182302,
                                16.981455
                            ],
                            [
                                96.1794837,
                                16.9815348
                            ],
                            [
                                96.180006,
                                16.9845069
                            ],
                            [
                                96.1809325,
                                16.9856624
                            ],
                            [
                                96.1809935,
                                16.9866276
                            ],
                            [
                                96.1799864,
                                16.9877715
                            ],
                            [
                                96.1793645,
                                16.9880838
                            ],
                            [
                                96.1777888,
                                16.9860473
                            ],
                            [
                                96.1771291,
                                16.9863292
                            ],
                            [
                                96.1758383,
                                16.9905942
                            ],
                            [
                                96.1782973,
                                16.9922458
                            ],
                            [
                                96.1762974,
                                16.9916015
                            ],
                            [
                                96.1762104,
                                16.9926437
                            ],
                            [
                                96.1738942,
                                16.9927424
                            ],
                            [
                                96.1733761,
                                16.9918187
                            ],
                            [
                                96.1734635,
                                16.9907056
                            ],
                            [
                                96.1719457,
                                16.9905606
                            ],
                            [
                                96.1713279,
                                16.9886946
                            ],
                            [
                                96.1692673,
                                16.9895688
                            ],
                            [
                                96.1699697,
                                16.9902626
                            ],
                            [
                                96.1698859,
                                16.9910787
                            ],
                            [
                                96.1675886,
                                16.9924024
                            ],
                            [
                                96.1678286,
                                16.9955988
                            ],
                            [
                                96.1661779,
                                16.9973196
                            ],
                            [
                                96.1657468,
                                16.9999479
                            ],
                            [
                                96.1639881,
                                17.0013258
                            ],
                            [
                                96.1641669,
                                17.0021602
                            ],
                            [
                                96.1662196,
                                17.0040108
                            ],
                            [
                                96.1642202,
                                17.0047276
                            ],
                            [
                                96.1637519,
                                17.0044575
                            ],
                            [
                                96.1636557,
                                17.0033663
                            ],
                            [
                                96.1613446,
                                17.0035419
                            ],
                            [
                                96.1607183,
                                17.0043695
                            ],
                            [
                                96.1618667,
                                17.0048427
                            ],
                            [
                                96.1617792,
                                17.0053646
                            ],
                            [
                                96.1584531,
                                17.0066236
                            ],
                            [
                                96.1590016,
                                17.007551
                            ],
                            [
                                96.1605049,
                                17.0083781
                            ],
                            [
                                96.1594603,
                                17.0096875
                            ],
                            [
                                96.1582848,
                                17.0087337
                            ],
                            [
                                96.1579377,
                                17.0091718
                            ],
                            [
                                96.1585143,
                                17.0127346
                            ],
                            [
                                96.1596652,
                                17.0142956
                            ],
                            [
                                96.1589406,
                                17.0152906
                            ],
                            [
                                96.1561404,
                                17.0152454
                            ],
                            [
                                96.1557519,
                                17.0171486
                            ],
                            [
                                96.1529056,
                                17.0190335
                            ],
                            [
                                96.154417,
                                17.0198691
                            ],
                            [
                                96.1535056,
                                17.0222979
                            ],
                            [
                                96.155069,
                                17.0226414
                            ],
                            [
                                96.1557639,
                                17.023946
                            ],
                            [
                                96.1544428,
                                17.0254954
                            ],
                            [
                                96.1533183,
                                17.0278983
                            ],
                            [
                                96.1563247,
                                17.0298212
                            ],
                            [
                                96.1580293,
                                17.0322697
                            ],
                            [
                                96.1594296,
                                17.0327474
                            ],
                            [
                                96.1606695,
                                17.0351355
                            ],
                            [
                                96.1637594,
                                17.0340128
                            ],
                            [
                                96.1663835,
                                17.0351546
                            ],
                            [
                                96.1658148,
                                17.0368211
                            ],
                            [
                                96.1660013,
                                17.0384424
                            ],
                            [
                                96.1667607,
                                17.0392315
                            ],
                            [
                                96.1684666,
                                17.0392095
                            ],
                            [
                                96.1707822,
                                17.0383893
                            ],
                            [
                                96.1715326,
                                17.038931
                            ],
                            [
                                96.1709605,
                                17.0443689
                            ],
                            [
                                96.1718611,
                                17.0448596
                            ],
                            [
                                96.1726557,
                                17.0461902
                            ],
                            [
                                96.1747022,
                                17.0474545
                            ],
                            [
                                96.1742641,
                                17.0483485
                            ],
                            [
                                96.1748619,
                                17.0541738
                            ],
                            [
                                96.1741127,
                                17.0556589
                            ],
                            [
                                96.1726915,
                                17.0563119
                            ],
                            [
                                96.1733966,
                                17.0597456
                            ],
                            [
                                96.171777,
                                17.0608515
                            ],
                            [
                                96.1713143,
                                17.0634846
                            ],
                            [
                                96.1677436,
                                17.0663277
                            ],
                            [
                                96.1670662,
                                17.0660036
                            ],
                            [
                                96.1650111,
                                17.0666728
                            ],
                            [
                                96.1644697,
                                17.0661464
                            ],
                            [
                                96.1634433,
                                17.0663637
                            ],
                            [
                                96.1617943,
                                17.0656306
                            ],
                            [
                                96.1607619,
                                17.0662384
                            ],
                            [
                                96.1597297,
                                17.0644524
                            ],
                            [
                                96.1581262,
                                17.0642498
                            ],
                            [
                                96.1562807,
                                17.0628001
                            ],
                            [
                                96.1542374,
                                17.0629643
                            ],
                            [
                                96.1526884,
                                17.0672438
                            ],
                            [
                                96.1513044,
                                17.0668951
                            ],
                            [
                                96.1502691,
                                17.0679771
                            ],
                            [
                                96.1498668,
                                17.0693925
                            ],
                            [
                                96.1485525,
                                17.068972
                            ],
                            [
                                96.1479892,
                                17.0692233
                            ],
                            [
                                96.1476191,
                                17.069854
                            ],
                            [
                                96.1480536,
                                17.0714437
                            ],
                            [
                                96.1478444,
                                17.0734334
                            ],
                            [
                                96.1457737,
                                17.0755
                            ],
                            [
                                96.1454894,
                                17.0773716
                            ],
                            [
                                96.146219,
                                17.0779819
                            ],
                            [
                                96.1460406,
                                17.0792151
                            ],
                            [
                                96.1450455,
                                17.0793279
                            ],
                            [
                                96.1448122,
                                17.0802843
                            ],
                            [
                                96.1432002,
                                17.0810457
                            ],
                            [
                                96.1422372,
                                17.0825559
                            ],
                            [
                                96.1416632,
                                17.0827174
                            ],
                            [
                                96.1405126,
                                17.0817457
                            ],
                            [
                                96.1382515,
                                17.0818277
                            ],
                            [
                                96.1371491,
                                17.0809073
                            ],
                            [
                                96.1358402,
                                17.0814175
                            ],
                            [
                                96.1339921,
                                17.080856
                            ],
                            [
                                96.1315299,
                                17.0820687
                            ],
                            [
                                96.130174,
                                17.0815893
                            ],
                            [
                                96.1273093,
                                17.0827767
                            ],
                            [
                                96.1259302,
                                17.0823356
                            ],
                            [
                                96.1239908,
                                17.0826717
                            ],
                            [
                                96.1226703,
                                17.0833516
                            ],
                            [
                                96.1218834,
                                17.0864389
                            ],
                            [
                                96.1204174,
                                17.0875768
                            ],
                            [
                                96.1181913,
                                17.0879952
                            ],
                            [
                                96.116587,
                                17.090549
                            ],
                            [
                                96.115538,
                                17.090682
                            ],
                            [
                                96.1141307,
                                17.0897673
                            ],
                            [
                                96.1137652,
                                17.0884618
                            ],
                            [
                                96.1127877,
                                17.0875468
                            ],
                            [
                                96.1123991,
                                17.0850559
                            ],
                            [
                                96.1105756,
                                17.0827861
                            ],
                            [
                                96.1075739,
                                17.0819395
                            ],
                            [
                                96.1067039,
                                17.0808485
                            ],
                            [
                                96.1040139,
                                17.0796013
                            ],
                            [
                                96.1034002,
                                17.0764422
                            ],
                            [
                                96.1005844,
                                17.0745878
                            ],
                            [
                                96.1015498,
                                17.0688241
                            ],
                            [
                                96.1028236,
                                17.0674889
                            ],
                            [
                                96.1034225,
                                17.0655436
                            ],
                            [
                                96.1031828,
                                17.0637828
                            ],
                            [
                                96.0974835,
                                17.0584408
                            ],
                            [
                                96.0960916,
                                17.0575754
                            ],
                            [
                                96.0930468,
                                17.0570486
                            ],
                            [
                                96.0897663,
                                17.0499334
                            ],
                            [
                                96.0897628,
                                17.0460691
                            ],
                            [
                                96.0910706,
                                17.0368882
                            ],
                            [
                                96.0917371,
                                17.0355721
                            ],
                            [
                                96.0921467,
                                17.0324966
                            ],
                            [
                                96.094016,
                                17.0287317
                            ],
                            [
                                96.0941767,
                                17.0270172
                            ],
                            [
                                96.0929845,
                                17.0253086
                            ],
                            [
                                96.0914269,
                                17.0238783
                            ],
                            [
                                96.0891308,
                                17.0232017
                            ],
                            [
                                96.0888215,
                                17.0241258
                            ],
                            [
                                96.0847896,
                                17.021706
                            ],
                            [
                                96.0843206,
                                17.016288
                            ],
                            [
                                96.080317,
                                17.0167848
                            ],
                            [
                                96.0742123,
                                17.0156768
                            ],
                            [
                                96.0694313,
                                17.0189225
                            ],
                            [
                                96.0652256,
                                17.0177222
                            ],
                            [
                                96.0642761,
                                17.0176811
                            ],
                            [
                                96.0633373,
                                17.0184762
                            ],
                            [
                                96.0629135,
                                17.0178402
                            ],
                            [
                                96.0587438,
                                17.0169118
                            ],
                            [
                                96.0596598,
                                17.0143478
                            ],
                            [
                                96.0593076,
                                17.012886
                            ],
                            [
                                96.0555831,
                                17.0128356
                            ],
                            [
                                96.0553283,
                                17.0122816
                            ],
                            [
                                96.0559425,
                                17.0106375
                            ],
                            [
                                96.0540515,
                                17.0080908
                            ],
                            [
                                96.0542982,
                                17.0073906
                            ],
                            [
                                96.0559756,
                                17.0069474
                            ],
                            [
                                96.0558513,
                                17.006324
                            ],
                            [
                                96.0524231,
                                17.0041654
                            ],
                            [
                                96.0508699,
                                17.0038109
                            ],
                            [
                                96.0495556,
                                17.0012818
                            ],
                            [
                                96.0460152,
                                16.9998578
                            ],
                            [
                                96.0470679,
                                16.9980674
                            ],
                            [
                                96.0468876,
                                16.9974872
                            ],
                            [
                                96.0420089,
                                16.9975934
                            ],
                            [
                                96.0394555,
                                16.99825
                            ],
                            [
                                96.0387259,
                                16.9969367
                            ],
                            [
                                96.0382968,
                                16.9949052
                            ],
                            [
                                96.038629,
                                16.9893506
                            ],
                            [
                                96.0349821,
                                16.9805885
                            ],
                            [
                                96.0375161,
                                16.9772285
                            ],
                            [
                                96.0508477,
                                16.9652889
                            ],
                            [
                                96.0612332,
                                16.9406997
                            ],
                            [
                                96.0646308,
                                16.9367715
                            ],
                            [
                                96.0413301,
                                16.9248844
                            ],
                            [
                                96.0440425,
                                16.9203127
                            ],
                            [
                                96.0459225,
                                16.9192368
                            ],
                            [
                                96.0467009,
                                16.9159789
                            ],
                            [
                                96.0455072,
                                16.9128466
                            ],
                            [
                                96.044065,
                                16.9113638
                            ],
                            [
                                96.0437715,
                                16.9102644
                            ],
                            [
                                96.0416845,
                                16.9085904
                            ],
                            [
                                96.0377333,
                                16.9125681
                            ],
                            [
                                96.0341257,
                                16.9148496
                            ],
                            [
                                96.0276429,
                                16.9142322
                            ],
                            [
                                96.0215179,
                                16.9212822
                            ],
                            [
                                96.0145708,
                                16.9266855
                            ],
                            [
                                96.0109686,
                                16.9287439
                            ],
                            [
                                96.0047934,
                                16.9284866
                            ],
                            [
                                96.0001619,
                                16.9251417
                            ],
                            [
                                95.9965597,
                                16.9192238
                            ],
                            [
                                95.9957878,
                                16.9127912
                            ],
                            [
                                96.0006766,
                                16.9112474
                            ],
                            [
                                96.007881,
                                16.9130485
                            ],
                            [
                                96.0140562,
                                16.9135631
                            ],
                            [
                                96.0169203,
                                16.9107831
                            ],
                            [
                                96.0176789,
                                16.9082581
                            ],
                            [
                                96.0175029,
                                16.9068465
                            ],
                            [
                                96.0158573,
                                16.9055868
                            ],
                            [
                                96.0125124,
                                16.9061014
                            ],
                            [
                                96.0101967,
                                16.904043
                            ],
                            [
                                96.0065945,
                                16.9037857
                            ],
                            [
                                96.0045361,
                                16.9006981
                            ],
                            [
                                96.0014485,
                                16.893751
                            ],
                            [
                                95.9973316,
                                16.8880904
                            ],
                            [
                                95.9963024,
                                16.8808859
                            ],
                            [
                                95.9947586,
                                16.874968
                            ]
                        ]
                    ]
                ]
            },
            "properties": {
                "fid": 1,
                "admin_id": 2043,
                "boundary_code": "yangon_city_district_2043",
                "canonical_name": "ရန်ကုန်မြို့"
            }
        }
    ]
}
